{
    "links": {
        "self": "http://www.neowsapp.com/rest/v1/neo/3728904?api_key=iIulBulltgU6a56xZRHN4H3l9WmuAYTsLGpBGhQ2"
    },
    "id": "3728904",
    "neo_reference_id": "3728904",
    "name": "(2015 TH)",
    "designation": "2015 TH",
    "nasa_jpl_url": "http://ssd.jpl.nasa.gov/sbdb.cgi?sstr=3728904",
    "absolute_magnitude_h": 25.4,
    "estimated_diameter": {
        "kilometers": {
            "estimated_diameter_min": 0.022108281,
            "estimated_diameter_max": 0.0494356193
        },
        "meters": {
            "estimated_diameter_min": 22.1082810359,
            "estimated_diameter_max": 49.435619262
        },
        "miles": {
            "estimated_diameter_min": 0.0137374447,
            "estimated_diameter_max": 0.0307178602
        },
        "feet": {
            "estimated_diameter_min": 72.5337327539,
            "estimated_diameter_max": 162.1903570994
        }
    },
    "is_potentially_hazardous_asteroid": false,
    "close_approach_data": [
        {
            "close_approach_date": "2015-10-10",
            "close_approach_date_full": "2015-Oct-10 09:38",
            "epoch_date_close_approach": 1444469880000,
            "relative_velocity": {
                "kilometers_per_second": "8.559975835",
                "kilometers_per_hour": "30815.9130058509",
                "miles_per_hour": "19147.8099452189"
            },
            "miss_distance": {
                "astronomical": "0.0638707702",
                "lunar": "24.8457296078",
                "kilometers": "9554931.177179474",
                "miles": "5937158.9237817812"
            },
            "orbiting_body": "Earth"
        }
    ],
    "orbital_data": {
        "orbit_id": "6",
        "orbit_determination_date": "2017-04-06 08:31:39",
        "first_observation_date": "2015-10-02",
        "last_observation_date": "2015-10-10",
        "data_arc_in_days": 8,
        "observations_used": 27,
        "orbit_uncertainty": "8",
        "minimum_orbit_intersection": ".0601803",
        "jupiter_tisserand_invariant": "3.627",
        "epoch_osculation": "2457300.5",
        "eccentricity": ".4964042720632565",
        "semi_major_axis": "2.037963129393449",
        "inclination": "8.917671627185715",
        "ascending_node_longitude": "7.414519647966494",
        "orbital_period": "1062.656518682658",
        "perihelion_distance": "1.026309525655138",
        "perihelion_argument": "32.49177118011981",
        "aphelion_distance": "3.049616733131761",
        "perihelion_time": "2457325.259591453471",
        "mean_anomaly": "351.6121034722497",
        "mean_motion": ".3387736240928356",
        "equinox": "J2000",
        "orbit_class": {
            "orbit_class_type": "AMO",
            "orbit_class_description": "Near-Earth asteroid orbits similar to that of 1221 Amor",
            "orbit_class_range": "1.017 AU < q (perihelion) < 1.3 AU"
        }
    },
    "is_sentry_object": false
}